
# Worst residual: 13.32 km
# MJD 56714.000000 (2014 Feb 26  0:00)
1969-046E = NORAD 03955 = Vela 5b
1 03955U 69046E   14057.49922241  .00000000  00000-0  00000-0 0 13464
2 03955 075.9137 004.0032 6478674 066.1214 277.7654 00.21407890    06

# Worst residual: 48.82 km
# MJD 56715.000000 (2014 Feb 27  0:00)
1969-046E = NORAD 03955 = Vela 5b
1 03955U 69046E   14058.49922241  .00000000  00000-0  00000-0 0 13465
2 03955 075.9108 003.9323 6463145 066.0793 354.7540 00.21484028    01

# Worst residual: 24.45 km
# MJD 56716.000000 (2014 Feb 28  0:00)
1969-046E = NORAD 03955 = Vela 5b
1 03955U 69046E   14059.49922241  .00000000  00000-0  00000-0 0 13466
2 03955 075.8995 003.8913 6485854 065.9790 071.7742 00.21399293    03

# Worst residual: 2.16 km
# MJD 56717.000000 (2014 Mar  1  0:00)
1969-046E = NORAD 03955 = Vela 5b
1 03955U 69046E   14060.49922241  .00000000  00000-0  00000-0 0 13468
2 03955 075.8991 003.8613 6493420 066.0431 148.5188 00.21368044    05

# Worst residual: 8.99 km
# MJD 56718.000000 (2014 Mar  2  0:00)
1969-046E = NORAD 03955 = Vela 5b
1 03955U 69046E   14061.49922241  .00000000  00000-0  00000-0 0 13469
2 03955 075.8923 003.8340 6498246 065.9975 225.5941 00.21367791    00

# Worst residual: 13.82 km
# MJD 56719.000000 (2014 Mar  3  0:00)
1969-046E = NORAD 03955 = Vela 5b
1 03955U 69046E   14062.49922241  .00000000  00000-0  00000-0 0 13460
2 03955 075.8779 003.8070 6507372 065.9049 302.7824 00.21334706    00

# Worst residual: 22.00 km
# MJD 56720.000000 (2014 Mar  4  0:00)
1969-046E = NORAD 03955 = Vela 5b
1 03955U 69046E   14063.49922241  .00000000  00000-0  00000-0 0 13461
2 03955 075.8631 003.7756 6504214 065.9664 019.7376 00.21431952    00

# Worst residual: 11.45 km
# MJD 56721.000000 (2014 Mar  5  0:00)
1969-046E = NORAD 03955 = Vela 5b
1 03955U 69046E   14064.49922241  .00000000  00000-0  00000-0 0 13462
2 03955 075.8384 003.7320 6516169 065.9699 096.6806 00.21393195    00

# Worst residual: 4.27 km
# MJD 56722.000000 (2014 Mar  6  0:00)
1969-046E = NORAD 03955 = Vela 5b
1 03955U 69046E   14065.49922241  .00000000  00000-0  00000-0 0 13463
2 03955 075.8408 003.7106 6516255 066.0211 173.5086 00.21370180    01

# Worst residual: 2.40 km
# MJD 56723.000000 (2014 Mar  7  0:00)
1969-046E = NORAD 03955 = Vela 5b
1 03955U 69046E   14066.49922241  .00000000  00000-0  00000-0 0 13464
2 03955 075.8371 003.6998 6517371 065.9929 250.4868 00.21363710    06

# Worst residual: 19.56 km
# MJD 56724.000000 (2014 Mar  8  0:00)
1969-046E = NORAD 03955 = Vela 5b
1 03955U 69046E   14067.49922241  .00000000  00000-0  00000-0 0 13465
2 03955 075.8328 003.6392 6522548 066.0138 327.4377 00.21374691    02

# Worst residual: 12.64 km
# MJD 56725.000000 (2014 Mar  9  0:00)
1969-046E = NORAD 03955 = Vela 5b
1 03955U 69046E   14068.49922241  .00000000  00000-0  00000-0 0 13466
2 03955 075.8315 003.6316 6523200 065.9750 044.5047 00.21412527    00

# Worst residual: 3.74 km
# MJD 56726.000000 (2014 Mar 10  0:00)
1969-046E = NORAD 03955 = Vela 5b
1 03955U 69046E   14069.49922241  .00000000  00000-0  00000-0 0 13467
2 03955 075.8030 003.5839 6527922 066.0266 121.4147 00.21380085    01

# Worst residual: 1.20 km
# MJD 56727.000000 (2014 Mar 11  0:00)
1969-046E = NORAD 03955 = Vela 5b
1 03955U 69046E   14070.49922241  .00000000  00000-0  00000-0 0 13469
2 03955 075.7932 003.5462 6529061 066.0262 198.3826 00.21373668    01

# Worst residual: 6.79 km
# MJD 56728.000000 (2014 Mar 12  0:00)
1969-046E = NORAD 03955 = Vela 5b
1 03955U 69046E   14071.49922241  .00000000  00000-0  00000-0 0 13460
2 03955 075.7787 003.4945 6530882 066.0257 275.3251 00.21375114    07

# Worst residual: 29.29 km
# MJD 56729.000000 (2014 Mar 13  0:00)
1969-046E = NORAD 03955 = Vela 5b
1 03955U 69046E   14072.49922241  .00000000  00000-0  00000-0 0 13461
2 03955 075.7657 003.4483 6523023 066.0340 352.2373 00.21441152    08

# Worst residual: 17.82 km
# MJD 56730.000000 (2014 Mar 14  0:00)
1969-046E = NORAD 03955 = Vela 5b
1 03955U 69046E   14073.49922241  .00000000  00000-0  00000-0 0 13462
2 03955 075.7558 003.4050 6536774 065.9471 069.3106 00.21408403    00

# Worst residual: 6.18 km
# MJD 56731.000000 (2014 Mar 15  0:00)
1969-046E = NORAD 03955 = Vela 5b
1 03955U 69046E   14074.49922241  .00000000  00000-0  00000-0 0 13463
2 03955 075.7534 003.3703 6540395 065.9673 146.2925 00.21391224    02

# Worst residual: 11.24 km
# MJD 56732.000000 (2014 Mar 16  0:00)
1969-046E = NORAD 03955 = Vela 5b
1 03955U 69046E   14075.49922241  .00000000  00000-0  00000-0 0 13464
2 03955 075.7386 003.3250 6535410 065.8846 223.5605 00.21372186    07

# Worst residual: 14.37 km
# MJD 56733.000000 (2014 Mar 17  0:00)
1969-046E = NORAD 03955 = Vela 5b
1 03955U 69046E   14076.49922241  .00000000  00000-0  00000-0 0 13465
2 03955 075.7219 003.2906 6535882 065.7172 300.7935 00.21311034    02

# Worst residual: 24.64 km
# MJD 56734.000000 (2014 Mar 18  0:00)
1969-046E = NORAD 03955 = Vela 5b
1 03955U 69046E   14077.49922241  .00000000  00000-0  00000-0 0 13466
2 03955 075.7062 003.2566 6532483 065.8000 017.6648 00.21417677    00

# Worst residual: 18.06 km
# MJD 56735.000000 (2014 Mar 19  0:00)
1969-046E = NORAD 03955 = Vela 5b
1 03955U 69046E   14078.49922241  .00000000  00000-0  00000-0 0 13467
2 03955 075.6435 003.1925 6549033 065.7972 094.4887 00.21371917    01

# Worst residual: 6.13 km
# MJD 56736.000000 (2014 Mar 20  0:00)
1969-046E = NORAD 03955 = Vela 5b
1 03955U 69046E   14079.49922241  .00000000  00000-0  00000-0 0 13468
2 03955 075.5728 003.0778 6560582 065.8178 171.3329 00.21373202    06

# Worst residual: 10.12 km
# MJD 56737.000000 (2014 Mar 21  0:00)
1969-046E = NORAD 03955 = Vela 5b
1 03955U 69046E   14080.49922241  .00000000  00000-0  00000-0 0 13460
2 03955 075.5539 003.0237 6566824 065.7534 248.5237 00.21369229    05

# Worst residual: 19.55 km
# MJD 56738.000000 (2014 Mar 22  0:00)
1969-046E = NORAD 03955 = Vela 5b
1 03955U 69046E   14081.49922241  .00000000  00000-0  00000-0 0 13461
2 03955 075.5459 002.9704 6575203 065.7346 325.5826 00.21357704    00

# Worst residual: 13.51 km
# MJD 56739.000000 (2014 Mar 23  0:00)
1969-046E = NORAD 03955 = Vela 5b
1 03955U 69046E   14082.49922241  .00000000  00000-0  00000-0 0 13462
2 03955 075.5495 002.9665 6573863 065.6772 042.6405 00.21420924    03

# Worst residual: 3.55 km
# MJD 56740.000000 (2014 Mar 24  0:00)
1969-046E = NORAD 03955 = Vela 5b
1 03955U 69046E   14083.49922241  .00000000  00000-0  00000-0 0 13463
2 03955 075.5375 002.9296 6579916 065.7093 119.5986 00.21392462    05

# Worst residual: 3.96 km
# MJD 56741.000000 (2014 Mar 25  0:00)
1969-046E = NORAD 03955 = Vela 5b
1 03955U 69046E   14084.49922241  .00000000  00000-0  00000-0 0 13464
2 03955 075.5492 002.9278 6584183 065.6743 196.7037 00.21394739    01
